ONEWEB-0162             
1 48056U 21025Q   26167.67280435 -.00000191  00000+0 -55850-3 0  9998
2 48056  87.8957 320.3257 0001967  94.1386 265.9968 13.13469938253478
ONEWEB-0155             
1 48057U 21025R   26167.67970834 -.00000225  00000+0 -64988-3 0  9998
2 48057  87.8958 320.3204 0001831 102.1555 257.9780 13.13469974253619
ONEWEB-0149             
1 48058U 21025S   26167.85407991  .00000033  00000+0  54259-4 0  9994
2 48058  87.8961 320.2895 0002024  93.5698 266.5663 13.13470777253445
ONEWEB-0148             
1 48059U 21025T   26167.66447772  .00000015  00000+0  65485-5 0  9999
2 48059  87.8954 320.3341 0002410  93.1674 266.9731 13.13469537253547
ONEWEB-0160             
1 48060U 21025U   26167.68139789 -.00000338  00000+0 -95986-3 0  9996
2 48060  87.8952 320.3264 0001417  75.1455 284.9831 13.13470980253493
ONEWEB-0163             
1 48061U 21025V   26167.66616073  .00000009  00000+0 -89692-5 0  9994
2 48061  87.8960 320.3241 0001984 104.2647 255.8703 13.13471113253612
ONEWEB-0159             
1 48062U 21025W   26167.65770237  .00000169  00000+0  42760-3 0  9996
2 48062  87.8963 320.3195 0001918 104.1295 256.0048 13.13470760253532
ONEWEB-0164             
1 48063U 21025X   26167.41055174  .00000327  00000+0  86138-3 0  9990
2 48063  87.8963 320.3752 0001751  95.5219 264.6109 13.13470324253489
ONEWEB-0167             
1 48064U 21025Y   26167.66700416 -.00000053  00000+0 -18008-3 0  9993
2 48064  87.8953 320.3338 0001703 118.3220 241.8081 13.13468310253503
ONEWEB-0166             
1 48065U 21025Z   26167.84220867 -.00000450  00000+0 -12659-2 0  9997
2 48065  87.8963 320.2703 0002037  96.3017 263.8344 13.13469977253607
ONEWEB-0151             
1 48066U 21025AA  26167.84390828 -.00000284  00000+0 -81324-3 0  9994
2 48066  87.8954 320.2868 0001748 100.3572 259.7754 13.13470802253541
ONEWEB-0170             
1 48067U 21025AB  26167.85237797 -.00000077  00000+0 -24618-3 0  9994
2 48067  87.8957 320.2872 0001375  96.5800 263.5485 13.13470684253504
ONEWEB-0168             
1 48068U 21025AC  26167.83714009 -.00000339  00000+0 -96271-3 0  9994
2 48068  87.8962 320.2900 0001968 100.8809 259.2541 13.13470160253514
ONEWEB-0173             
1 48069U 21025AD  26167.67632146 -.00000143  00000+0 -42687-3 0  9993
2 48069  87.8956 320.3234 0001950 107.9364 252.1977 13.13470726253731
ONEWEB-0171             
1 48070U 21025AE  26167.71357000  .00000268  00000+0  69775-3 0  9996
2 48070  87.8953 320.3246 0001734  98.2724 261.8601 13.13470733253554
ONEWEB-0172             
1 48071U 21025AF  26167.84559729 -.00000245  00000+0 -70632-3 0  9994
2 48071  87.8959 320.2881 0001791 102.5489 257.5840 13.13471718254467
ONEWEB-0174             
1 48072U 21025AG  26167.67463560 -.00000244  00000+0 -70432-3 0  9990
2 48072  87.8957 320.3211 0001991  96.7990 263.3366 13.13470362253761
ONEWEB-0175             
1 48073U 21025AH  26167.85746149  .00000086  00000+0  20045-3 0  9995
2 48073  87.8963 320.2693 0001535 103.0363 257.0938 13.13471005253447
ONEWEB-0177             
1 48074U 21025AJ  26167.48841895  .00000382  00000+0  10118-2 0  9997
2 48074  87.8960 320.3613 0002038 100.2818 259.8541 13.13471587253581
ONEWEB-0178             
1 48075U 21025AK  26167.65952824  .00000135  00000+0  33448-3 0  9990
2 48075  87.8946 320.3398 0001725 105.1682 254.9638 13.13468382253651
ONEWEB-0108             
1 48076U 21025AL  26167.84729977 -.00000181  00000+0 -52995-3 0  9994
2 48076  87.8962 320.2811 0001912  90.3331 269.8017 13.13470516253606
ONEWEB-0169             
1 48077U 21025AM  26167.65093421  .00000363  00000+0  95848-3 0  9996
2 48077  87.8956 320.3282 0001949  96.3921 263.7430 13.13470143252230
ONEWEB-0176             
1 48210U 21031A   26167.72228693  .00000108  00000+0  25676-3 0  9990
2 48210  87.8964 289.7918 0001873 103.8616 256.2722 13.14502969248254
ONEWEB-0184             
1 48211U 21031B   26167.84755909  .00000044  00000+0  85040-4 0  9990
2 48211  87.8971 289.7676 0001542 125.2170 234.9105 13.14502918248241
ONEWEB-0179             
1 48212U 21031C   26167.74395904  .00000205  00000+0  61917-4 0  9991
2 48212  87.8990 287.0790 0218699 258.6655  98.9896 14.25523338248981
ONEWEB-0180             
1 48213U 21031D   26167.85073381  .00000003  00000+0 -25547-4 0  9992
2 48213  87.8969 289.7630 0002202 111.8277 248.3087 13.14503668248176
ONEWEB-0218             
1 48214U 21031E   26167.72070063  .00000245  00000+0  62673-3 0  9990
2 48214  87.8973 289.7881 0001817 128.3676 231.7617 13.14503251248316
ONEWEB-0209             
1 48215U 21031F   26167.86182666  .00000142  00000+0  34902-3 0  9999
2 48215  87.8963 289.7772 0002126 104.0045 256.1321 13.14501676248334
ONEWEB-0198             
1 48216U 21031G   26167.84611725 -.00000008  00000+0 -55573-4 0  9992
2 48216  87.8955 289.7796 0002072 112.9501 247.1847 13.14502896248447
ONEWEB-0189             
1 48217U 21031H   26167.85866519  .00000149  00000+0  36811-3 0  9994
2 48217  87.8968 289.7631 0002016 111.2124 248.9221 13.14503327248187
