OBJECT_NAME,OBJECT_ID,EPOCH,MEAN_MOTION,ECCENTRICITY,INCLINATION,RA_OF_ASC_NODE,ARG_OF_PERICENTER,MEAN_ANOMALY,EPHEMERIS_TYPE,CLASSIFICATION_TYPE,NORAD_CAT_ID,ELEMENT_SET_NO,REV_AT_EPOCH,BSTAR,MEAN_MOTION_DOT,MEAN_MOTION_DDOT
ONEWEB-0162,2021-025Q,2026-06-16T16:08:50.295840,13.13469938,.0001967,87.8957,320.3257,94.1386,265.9968,0,U,48056,999,25347,-.5585E-3,-.191E-5,0
ONEWEB-0155,2021-025R,2026-06-16T16:18:46.800576,13.13469974,.0001831,87.8958,320.3204,102.1555,257.9780,0,U,48057,999,25361,-.64988E-3,-.225E-5,0
ONEWEB-0149,2021-025S,2026-06-16T20:29:52.504224,13.13470777,.0002024,87.8961,320.2895,93.5698,266.5663,0,U,48058,999,25344,.54259E-4,.33E-6,0
ONEWEB-0148,2021-025T,2026-06-16T15:56:50.875008,13.13469537,.000241,87.8954,320.3341,93.1674,266.9731,0,U,48059,999,25354,.65485E-5,.15E-6,0
ONEWEB-0160,2021-025U,2026-06-16T16:21:12.777696,13.13470980,.0001417,87.8952,320.3264,75.1455,284.9831,0,U,48060,999,25349,-.95986E-3,-.338E-5,0
ONEWEB-0163,2021-025V,2026-06-16T15:59:16.287072,13.13471113,.0001984,87.8960,320.3241,104.2647,255.8703,0,U,48061,999,25361,-.89692E-5,.9E-7,0
ONEWEB-0159,2021-025W,2026-06-16T15:47:05.484768,13.13470760,.0001918,87.8963,320.3195,104.1295,256.0048,0,U,48062,999,25353,.4276E-3,.169E-5,0
ONEWEB-0164,2021-025X,2026-06-16T09:51:11.670336,13.13470324,.00017511,87.8963,320.3752,95.5219,264.6109,0,U,48063,999,25348,.86138423E-3,.327E-5,0
ONEWEB-0167,2021-025Y,2026-06-16T16:00:29.159424,13.13468310,.0001703,87.8953,320.3338,118.3220,241.8081,0,U,48064,999,25350,-.18008E-3,-.53E-6,0
ONEWEB-0166,2021-025Z,2026-06-16T20:12:46.829088,13.13469977,.0002037,87.8963,320.2703,96.3017,263.8344,0,U,48065,999,25360,-.12659E-2,-.45E-5,0
ONEWEB-0151,2021-025AA,2026-06-16T20:15:13.675392,13.13470802,.0001748,87.8954,320.2868,100.3572,259.7754,0,U,48066,999,25354,-.81324E-3,-.284E-5,0
ONEWEB-0170,2021-025AB,2026-06-16T20:27:25.456608,13.13470684,.0001375,87.8957,320.2872,96.5800,263.5485,0,U,48067,999,25350,-.24618E-3,-.77E-6,0
ONEWEB-0168,2021-025AC,2026-06-16T20:05:28.903776,13.13470160,.0001968,87.8962,320.2900,100.8809,259.2541,0,U,48068,999,25351,-.96271E-3,-.339E-5,0
ONEWEB-0173,2021-025AD,2026-06-16T16:13:54.174144,13.13470726,.000195,87.8956,320.3234,107.9364,252.1977,0,U,48069,999,25373,-.42687E-3,-.143E-5,0
ONEWEB-0171,2021-025AE,2026-06-16T17:07:32.448000,13.13470733,.0001734,87.8953,320.3246,98.2724,261.8601,0,U,48070,999,25355,.69775E-3,.268E-5,0
ONEWEB-0172,2021-025AF,2026-06-16T20:17:39.605856,13.13471718,.0001791,87.8959,320.2881,102.5489,257.5840,0,U,48071,999,25446,-.70632E-3,-.245E-5,0
ONEWEB-0174,2021-025AG,2026-06-16T16:11:28.515840,13.13470362,.0001991,87.8957,320.3211,96.7990,263.3366,0,U,48072,999,25376,-.70432E-3,-.244E-5,0
ONEWEB-0175,2021-025AH,2026-06-16T20:34:44.672736,13.13471005,.0001535,87.8963,320.2693,103.0363,257.0938,0,U,48073,999,25344,.20045E-3,.86E-6,0
ONEWEB-0177,2021-025AJ,2026-06-16T11:43:19.397280,13.13471587,.00020382,87.8960,320.3613,100.2818,259.8541,0,U,48074,999,25358,.10117921E-2,.382E-5,0
ONEWEB-0178,2021-025AK,2026-06-16T15:49:43.239936,13.13468382,.0001725,87.8946,320.3398,105.1682,254.9638,0,U,48075,999,25365,.33448E-3,.135E-5,0
ONEWEB-0108,2021-025AL,2026-06-16T20:20:06.700128,13.13470516,.0001912,87.8962,320.2811,90.3331,269.8017,0,U,48076,999,25360,-.52995E-3,-.181E-5,0
ONEWEB-0169,2021-025AM,2026-06-16T15:37:20.715744,13.13470143,.0001949,87.8956,320.3282,96.3921,263.7430,0,U,48077,999,25223,.95848E-3,.363E-5,0
ONEWEB-0176,2021-031A,2026-06-16T17:20:05.590752,13.14502969,.0001873,87.8964,289.7918,103.8616,256.2722,0,U,48210,999,24825,.25676E-3,.108E-5,0
ONEWEB-0184,2021-031B,2026-06-16T20:20:29.105376,13.14502918,.0001542,87.8971,289.7676,125.2170,234.9105,0,U,48211,999,24824,.8504E-4,.44E-6,0
ONEWEB-0179,2021-031C,2026-06-16T17:51:18.061056,14.25523338,.0218699,87.8990,287.0790,258.6655,98.9896,0,U,48212,999,24898,.61917E-4,.205E-5,0
ONEWEB-0180,2021-031D,2026-06-16T20:25:03.401184,13.14503668,.0002202,87.8969,289.7630,111.8277,248.3087,0,U,48213,999,24817,-.25547E-4,.3E-7,0
ONEWEB-0218,2021-031E,2026-06-16T17:17:48.534432,13.14503251,.0001817,87.8973,289.7881,128.3676,231.7617,0,U,48214,999,24831,.62673E-3,.245E-5,0
ONEWEB-0209,2021-031F,2026-06-16T20:41:01.823424,13.14501676,.0002126,87.8963,289.7772,104.0045,256.1321,0,U,48215,999,24833,.34902E-3,.142E-5,0
ONEWEB-0198,2021-031G,2026-06-16T20:18:24.530400,13.14502896,.0002072,87.8955,289.7796,112.9501,247.1847,0,U,48216,999,24844,-.55573E-4,-.8E-7,0
ONEWEB-0189,2021-031H,2026-06-16T20:36:28.672416,13.14503327,.0002016,87.8968,289.7631,111.2124,248.9221,0,U,48217,999,24818,.36811E-3,.149E-5,0
